{"fetched_at":"2026-03-30T06:02:59Z","count":15439,"tles":[{"name":"XINGSHIDAI 10","line1":"1 49007U 21061E   26087.94205245  .00312802  00000+0  12584-2 0  9991","line2":"2 49007  97.2969 165.7872 0002784 238.8005 121.2993 15.85635534263561","category":"Other"}]}